METOP-C                 
1 43689U 18087A   26094.93526529  .00000174  00000+0  99518-4 0  9993
2 43689  98.6711 155.8557 0001766  64.4918 295.6442 14.21506305384422
GEO-KOMPSAT-2A          
1 43823U 18100A   26094.91473727 -.00000343  00000+0  00000+0 0  9990
2 43823   0.0529  37.8886 0001957  23.0900 229.8063  1.00273348 26897
METEOR-M2 2             
1 44387U 19038A   26094.90713061 -.00000004  00000+0  18148-4 0  9995
2 44387  98.9117  81.1258 0000673 168.4548 191.6646 14.24344583350863
ARKTIKA-M 1             
1 47719U 21016A   26086.24697042 -.00000098  00000+0  00000+0 0  9990
2 47719  63.2179  69.3783 7253959 269.5617  15.0995  2.00616454 37142
FENGYUN 3E              
1 49008U 21062A   26094.98637459  .00000094  00000+0  65057-4 0  9993
2 49008  98.7510  99.2074 0000922 342.2182  17.8962 14.19897832246196
GOES 18                 
1 51850U 22021A   26094.71956521  .00000097  00000+0  00000+0 0  9997
2 51850   0.0483  37.2906 0000820  38.7033 239.0887  1.00274252  5855
NOAA 21 (JPSS-2)        
1 54234U 22150A   26094.87177809  .00000143  00000+0  88742-4 0  9996
2 54234  98.7586  34.8425 0002641  60.8088 299.3352 14.19559508176141
METEOSAT-12 (MTG-I1)    
1 54743U 22170C   26094.89892032 -.00000006  00000+0  00000+0 0  9992
2 54743   0.7403  26.5316 0001527 303.4511 186.5301  1.00274746 12248
TIANMU-1 03             
1 55973U 23039A   26094.92117836  .00019127  00000+0  40427-3 0  9993
2 55973  97.5206 266.1499 0002947  25.3889 334.7503 15.45208871169512
TIANMU-1 04             
1 55974U 23039B   26094.93719118  .00020558  00000+0  42656-3 0  9992
2 55974  97.5139 265.3206 0003455  17.1706 342.9659 15.45734711169528
TIANMU-1 05             
1 55975U 23039C   26094.89879006  .00018853  00000+0  39935-3 0  9992
2 55975  97.5184 265.7685 0003240  47.8992 312.2532 15.45146351169496
TIANMU-1 06             
1 55976U 23039D   26094.93679110  .00019807  00000+0  41200-3 0  9990
2 55976  97.5194 266.3725 0003403  40.1839 319.9661 15.45669149169523
FENGYUN 3G              
1 56232U 23055A   26094.95462341  .00034415  00000+0  53441-3 0  9994
2 56232  49.9946   3.6369 0004071  45.2684 314.8614 15.53580615168628
METEOR-M2 3             
1 57166U 23091A   26094.95528958  .00000031  00000+0  32462-4 0  9996
2 57166  98.6164 151.4066 0004483  38.3330 321.8167 14.24040591144099
TIANMU-1 07             
1 57399U 23101A   26094.88983075  .00009602  00000+0  33925-3 0  9990
2 57399  97.2667 147.2494 0004464  80.3359 279.8386 15.29394762150444
TIANMU-1 08             
1 57400U 23101B   26094.53033657  .00000459  00000+0  18611-4 0  9994
2 57400  97.2662 146.6773 0005376  60.6646 299.5131 15.29475906150388
TIANMU-1 09             
1 57401U 23101C   26094.90659378  .00009440  00000+0  33335-3 0  9998
2 57401  97.2614 146.5014 0004903  78.1357 282.0434 15.29415776150440
