[{"OBJECT_NAME":"METOP-C","OBJECT_ID":"2018-087A","EPOCH":"2026-04-04T22:26:46.921056","MEAN_MOTION":14.21506305,"ECCENTRICITY":0.00017669,"INCLINATION":98.6711,"RA_OF_ASC_NODE":155.8557,"ARG_OF_PERICENTER":64.4918,"MEAN_ANOMALY":295.6442,"EPHEMERIS_TYPE":0,"CLASSIFICATION_TYPE":"U","NORAD_CAT_ID":43689,"ELEMENT_SET_NO":999,"REV_AT_EPOCH":38442,"BSTAR":9.9517521e-5,"MEAN_MOTION_DOT":1.74e-6,"MEAN_MOTION_DDOT":0},{"OBJECT_NAME":"GEO-KOMPSAT-2A","OBJECT_ID":"2018-100A","EPOCH":"2026-04-04T21:57:13.300128","MEAN_MOTION":1.00273348,"ECCENTRICITY":0.00019571,"INCLINATION":0.0529,"RA_OF_ASC_NODE":37.8886,"ARG_OF_PERICENTER":23.09,"MEAN_ANOMALY":229.8063,"EPHEMERIS_TYPE":0,"CLASSIFICATION_TYPE":"U","NORAD_CAT_ID":43823,"ELEMENT_SET_NO":999,"REV_AT_EPOCH":2689,"BSTAR":0,"MEAN_MOTION_DOT":-3.43e-6,"MEAN_MOTION_DDOT":0},{"OBJECT_NAME":"METEOR-M2 2","OBJECT_ID":"2019-038A","EPOCH":"2026-04-04T21:46:16.084704","MEAN_MOTION":14.24344583,"ECCENTRICITY":6.736e-5,"INCLINATION":98.9117,"RA_OF_ASC_NODE":81.1258,"ARG_OF_PERICENTER":168.4548,"MEAN_ANOMALY":191.6646,"EPHEMERIS_TYPE":0,"CLASSIFICATION_TYPE":"U","NORAD_CAT_ID":44387,"ELEMENT_SET_NO":999,"REV_AT_EPOCH":35086,"BSTAR":1.8148404e-5,"MEAN_MOTION_DOT":-4.0e-8,"MEAN_MOTION_DDOT":0},{"OBJECT_NAME":"ARKTIKA-M 1","OBJECT_ID":"2021-016A","EPOCH":"2026-03-27T05:55:38.244288","MEAN_MOTION":2.00616454,"ECCENTRICITY":0.7253959,"INCLINATION":63.2179,"RA_OF_ASC_NODE":69.3783,"ARG_OF_PERICENTER":269.5617,"MEAN_ANOMALY":15.0995,"EPHEMERIS_TYPE":0,"CLASSIFICATION_TYPE":"U","NORAD_CAT_ID":47719,"ELEMENT_SET_NO":999,"REV_AT_EPOCH":3714,"BSTAR":0,"MEAN_MOTION_DOT":-9.8e-7,"MEAN_MOTION_DDOT":0},{"OBJECT_NAME":"FENGYUN 3E","OBJECT_ID":"2021-062A","EPOCH":"2026-04-04T23:40:22.764576","MEAN_MOTION":14.19897832,"ECCENTRICITY":9.225e-5,"INCLINATION":98.751,"RA_OF_ASC_NODE":99.2074,"ARG_OF_PERICENTER":342.2182,"MEAN_ANOMALY":17.8962,"EPHEMERIS_TYPE":0,"CLASSIFICATION_TYPE":"U","NORAD_CAT_ID":49008,"ELEMENT_SET_NO":999,"REV_AT_EPOCH":24619,"BSTAR":6.5056911e-5,"MEAN_MOTION_DOT":9.4e-7,"MEAN_MOTION_DDOT":0},{"OBJECT_NAME":"GOES 18","OBJECT_ID":"2022-021A","EPOCH":"2026-04-04T17:16:10.434144","MEAN_MOTION":1.00274252,"ECCENTRICITY":8.204e-5,"INCLINATION":0.0483,"RA_OF_ASC_NODE":37.2906,"ARG_OF_PERICENTER":38.7033,"MEAN_ANOMALY":239.0887,"EPHEMERIS_TYPE":0,"CLASSIFICATION_TYPE":"U","NORAD_CAT_ID":51850,"ELEMENT_SET_NO":999,"REV_AT_EPOCH":585,"BSTAR":0,"MEAN_MOTION_DOT":9.7e-7,"MEAN_MOTION_DDOT":0},{"OBJECT_NAME":"NOAA 21 (JPSS-2)","OBJECT_ID":"2022-150A","EPOCH":"2026-04-04T20:55:21.626976","MEAN_MOTION":14.19559508,"ECCENTRICITY":0.00026411,"INCLINATION":98.7586,"RA_OF_ASC_NODE":34.8425,"ARG_OF_PERICENTER":60.8088,"MEAN_ANOMALY":299.3352,"EPHEMERIS_TYPE":0,"CLASSIFICATION_TYPE":"U","NORAD_CAT_ID":54234,"ELEMENT_SET_NO":999,"REV_AT_EPOCH":17614,"BSTAR":8.8742425e-5,"MEAN_MOTION_DOT":1.43e-6,"MEAN_MOTION_DDOT":0},{"OBJECT_NAME":"METEOSAT-12 (MTG-I1)","OBJECT_ID":"2022-170C","EPOCH":"2026-04-04T21:34:26.715648","MEAN_MOTION":1.00274746,"ECCENTRICITY":0.00015272,"INCLINATION":0.7403,"RA_OF_ASC_NODE":26.5316,"ARG_OF_PERICENTER":303.4511,"MEAN_ANOMALY":186.5301,"EPHEMERIS_TYPE":0,"CLASSIFICATION_TYPE":"U","NORAD_CAT_ID":54743,"ELEMENT_SET_NO":999,"REV_AT_EPOCH":1224,"BSTAR":0,"MEAN_MOTION_DOT":-6.0e-8,"MEAN_MOTION_DDOT":0},{"OBJECT_NAME":"TIANMU-1 03","OBJECT_ID":"2023-039A","EPOCH":"2026-04-04T22:06:29.810304","MEAN_MOTION":15.45208871,"ECCENTRICITY":0.00029472,"INCLINATION":97.5206,"RA_OF_ASC_NODE":266.1499,"ARG_OF_PERICENTER":25.3889,"MEAN_ANOMALY":334.7503,"EPHEMERIS_TYPE":0,"CLASSIFICATION_TYPE":"U","NORAD_CAT_ID":55973,"ELEMENT_SET_NO":999,"REV_AT_EPOCH":16951,"BSTAR":0.00040426765,"MEAN_MOTION_DOT":0.00019127,"MEAN_MOTION_DDOT":0},{"OBJECT_NAME":"TIANMU-1 04","OBJECT_ID":"2023-039B","EPOCH":"2026-04-04T22:29:33.317952","MEAN_MOTION":15.45734711,"ECCENTRICITY":0.0003455,"INCLINATION":97.5139,"RA_OF_ASC_NODE":265.3206,"ARG_OF_PERICENTER":17.1706,"MEAN_ANOMALY":342.9659,"EPHEMERIS_TYPE":0,"CLASSIFICATION_TYPE":"U","NORAD_CAT_ID":55974,"ELEMENT_SET_NO":999,"REV_AT_EPOCH":16952,"BSTAR":0.00042656466,"MEAN_MOTION_DOT":0.00020558,"MEAN_MOTION_DDOT":0},{"OBJECT_NAME":"TIANMU-1 05","OBJECT_ID":"2023-039C","EPOCH":"2026-04-04T21:34:15.461184","MEAN_MOTION":15.45146351,"ECCENTRICITY":0.00032405,"INCLINATION":97.5184,"RA_OF_ASC_NODE":265.7685,"ARG_OF_PERICENTER":47.8992,"MEAN_ANOMALY":312.2532,"EPHEMERIS_TYPE":0,"CLASSIFICATION_TYPE":"U","NORAD_CAT_ID":55975,"ELEMENT_SET_NO":999,"REV_AT_EPOCH":16949,"BSTAR":0.00039935021,"MEAN_MOTION_DOT":0.00018853,"MEAN_MOTION_DDOT":0},{"OBJECT_NAME":"TIANMU-1 06","OBJECT_ID":"2023-039D","EPOCH":"2026-04-04T22:28:58.751040","MEAN_MOTION":15.45669149,"ECCENTRICITY":0.00034039,"INCLINATION":97.5194,"RA_OF_ASC_NODE":266.3725,"ARG_OF_PERICENTER":40.1839,"MEAN_ANOMALY":319.9661,"EPHEMERIS_TYPE":0,"CLASSIFICATION_TYPE":"U","NORAD_CAT_ID":55976,"ELEMENT_SET_NO":999,"REV_AT_EPOCH":16952,"BSTAR":0.00041200439,"MEAN_MOTION_DOT":0.00019807,"MEAN_MOTION_DDOT":0},{"OBJECT_NAME":"FENGYUN 3G","OBJECT_ID":"2023-055A","EPOCH":"2026-04-04T22:54:39.462624","MEAN_MOTION":15.53580615,"ECCENTRICITY":0.00040718,"INCLINATION":49.9946,"RA_OF_ASC_NODE":3.6369,"ARG_OF_PERICENTER":45.2684,"MEAN_ANOMALY":314.8614,"EPHEMERIS_TYPE":0,"CLASSIFICATION_TYPE":"U","NORAD_CAT_ID":56232,"ELEMENT_SET_NO":999,"REV_AT_EPOCH":16862,"BSTAR":0.00053441212,"MEAN_MOTION_DOT":0.00034415,"MEAN_MOTION_DDOT":0},{"OBJECT_NAME":"METEOR-M2 3","OBJECT_ID":"2023-091A","EPOCH":"2026-04-04T22:55:37.019712","MEAN_MOTION":14.24040591,"ECCENTRICITY":0.00044835,"INCLINATION":98.6164,"RA_OF_ASC_NODE":151.4066,"ARG_OF_PERICENTER":38.333,"MEAN_ANOMALY":321.8167,"EPHEMERIS_TYPE":0,"CLASSIFICATION_TYPE":"U","NORAD_CAT_ID":57166,"ELEMENT_SET_NO":999,"REV_AT_EPOCH":14409,"BSTAR":3.2461982e-5,"MEAN_MOTION_DOT":3.1e-7,"MEAN_MOTION_DDOT":0},{"OBJECT_NAME":"TIANMU-1 07","OBJECT_ID":"2023-101A","EPOCH":"2026-04-04T21:21:21.376800","MEAN_MOTION":15.29394762,"ECCENTRICITY":0.00044643,"INCLINATION":97.2667,"RA_OF_ASC_NODE":147.2494,"ARG_OF_PERICENTER":80.3359,"MEAN_ANOMALY":279.8386,"EPHEMERIS_TYPE":0,"CLASSIFICATION_TYPE":"U","NORAD_CAT_ID":57399,"ELEMENT_SET_NO":999,"REV_AT_EPOCH":15044,"BSTAR":0.00033925494,"MEAN_MOTION_DOT":9.602e-5,"MEAN_MOTION_DDOT":0},{"OBJECT_NAME":"TIANMU-1 08","OBJECT_ID":"2023-101B","EPOCH":"2026-04-04T12:43:41.079648","MEAN_MOTION":15.29475906,"ECCENTRICITY":0.0005376,"INCLINATION":97.2662,"RA_OF_ASC_NODE":146.6773,"ARG_OF_PERICENTER":60.6646,"MEAN_ANOMALY":299.5131,"EPHEMERIS_TYPE":0,"CLASSIFICATION_TYPE":"U","NORAD_CAT_ID":57400,"ELEMENT_SET_NO":999,"REV_AT_EPOCH":15038,"BSTAR":1.8611e-5,"MEAN_MOTION_DOT":4.59e-6,"MEAN_MOTION_DDOT":0},{"OBJECT_NAME":"TIANMU-1 09","OBJECT_ID":"2023-101C","EPOCH":"2026-04-04T21:45:29.702592","MEAN_MOTION":15.29415776,"ECCENTRICITY":0.00049034,"INCLINATION":97.2614,"RA_OF_ASC_NODE":146.5014,"ARG_OF_PERICENTER":78.1357,"MEAN_ANOMALY":282.0434,"EPHEMERIS_TYPE":0,"CLASSIFICATION_TYPE":"U","NORAD_CAT_ID":57401,"ELEMENT_SET_NO":999,"REV_AT_EPOCH":15044,"BSTAR":0.00033335365,"MEAN_MOTION_DOT":9.44e-5,"MEAN_MOTION_DDOT":0}]
